SENTINEL-6              
1 46984U 20086A   24133.86324328 -.00000037  00000+0  10523-3 0  9990
2 46984  66.0412 284.6364 0007769 270.6357  89.3768 12.80930903162302
